IRIDIUM 26              
1 24903U 97043A   25080.17557490  .00001074  00000+0  35561-3 0  9998
2 24903  86.3996 147.5907 0002329  89.1322 271.0142 14.37039411444579
IRIDIUM 22              
1 24907U 97043E   25080.24211465  .00000947  00000+0  32044-3 0  9990
2 24907  86.4006 151.0218 0002198  94.4503 265.6945 14.35865143444145
DUMMY MASS 1            
1 24925U 97048A   25080.25864517  .00001365  00000+0  14977-3 0  9998
2 24925  86.3417 175.9564 0008982  96.6089 263.6158 14.86874012492305
DUMMY MASS 2            
1 24926U 97048B   25080.34079462  .00001374  00000+0  15163-3 0  9994
2 24926  86.3418 177.5072 0009727 105.2478 254.9823 14.86627307492097
IRIDIUM 29              
1 24944U 97051A   25079.80817358  .00001262  00000+0  42498-3 0  9998
2 24944  86.4036 180.9326 0002082 101.0293 259.1138 14.36354457440806
IRIDIUM 33              
1 24946U 97051C   25079.83335776  .00000916  00000+0  31626-3 0  9998
2 24946  86.3951 180.1757 0008188  22.1424 338.0125 14.34815646440077
IRIDIUM 28              
1 24948U 97051E   25079.76914598  .00001247  00000+0  41214-3 0  9999
2 24948  86.4042 178.5184 0002276  84.2371 275.9086 14.37285057441210
IRIDIUM 36              
1 24967U 97056C   25079.88505917  .00001384  00000+0  45615-3 0  9990
2 24967  86.4011 210.0451 0001873  90.0449 270.0963 14.37489112439539
